22490,SCD 1,1993,99.59,-1.0,P,24.97,Active,0,LEO,USA,Brazil,Unknown,Unknown,Unknown,1 22490U 93009B   25158.90302992  .00000427  00000+0  66325-4 0  9991,2 22490  24.9709 358.0828 0042224 137.1695 357.9385 14.45858727707285,14.45858727,0.0042224,LEO
25397,TECHSAT 1B (GO-32),1998,101.1,-1.0,P,98.97,Active,0,LEO,Kazakhstan,Israel,Unknown,Unknown,Unknown,1 25397U 98043D   25158.51415679  .00000074  00000+0  52194-4 0  9994,2 25397  98.9700 137.5901 0001062 161.6973 198.4244 14.24314866397997,14.24314866,0.0001062,LEO
25504,SCD 2,1998,99.63,110.0,+,24.99,Active,1,LEO,Eastern Range Airspace,Brazil,Government,Earth Observation,Pegasus,1 25504U 98060A   25158.52526090  .00000369  00000+0  52465-4 0  9992,2 25504  24.9939 222.2879 0017005 123.9586 259.5109 14.45297738406060,14.45297738,0.0017005,LEO
25757,DLR-TUBSAT,1999,99.16,45.0,+,98.63,Active,1,LEO,India,Germany,Government,Earth Observation,PSLV,1 25757U 99029B   25158.92396674  .00000103  00000+0  37274-4 0  9992,2 25757  98.6348 137.8555 0015165  51.4067 308.8483 14.52271421379025,14.52271421,0.0015165,LEO
25994,TERRA,1999,98.58,4854.0,X,98.0,Active,1,LEO,USA,USA,Government,Earth Observation,Atlas,1 25994U 99068A   25158.85841671  .00000380  00000+0  87106-4 0  9998,2 25994  97.9983 217.1381 0001914  10.3225 100.6895 14.60702765355074,14.60702765,0.0001914,LEO
27004,MAROC-TUBSAT,2001,105.09,47.0,+,99.78,Active,1,LEO,Kazakhstan,Germany,Government,Technology Development,Zenit,1 27004U 01056D   25158.70597181 -.00000018  00000+0  31729-4 0  9999,2 27004  99.7774 323.9992 0020132  24.4753 346.7176 13.70242516174892,13.70242516,0.0020132,LEO
27424,AQUA,2002,98.54,2934.0,+,98.38,Active,1,LEO,USA,USA,Government,Earth Observation,Delta,1 27424U 02022A   25158.88724090  .00000753  00000+0  16243-3 0  9997,2 27424  98.3774 117.1211 0002105  76.9431 303.9516 14.61290502228639,14.61290502,0.0002105,LEO
28051,IRS-P6 (RESOURCESAT-1),2003,100.28,1360.0,+,98.24,Active,1,LEO,India,India,Government,Earth Observation,PSLV,1 28051U 03046A   25158.87282477  .00000112  00000+0  51448-4 0  9994,2 28051  98.2409 207.6759 0064777  25.9206  77.6780 14.35979422126832,14.35979422,0.0064777,LEO
28220,SHIYAN-1 (SY-1),2004,94.54,204.0,+,97.92,Active,1,LEO,PRC,China,Government,Earth Observation,Long March,1 28220U 04012A   25158.89116995  .00007984  00000+0  34157-3 0  9990,2 28220  97.9172 209.9011 0005892 242.5774 117.4863 15.23104304154113,15.23104304,0.0005892,LEO
28376,AURA,2004,98.6,2967.0,+,98.29,Active,1,LEO,USA,USA,Government,Earth Observation,Delta,1 28376U 04026A   25158.61040399  .00000798  00000+0  17463-3 0  9998,2 28376  98.2941 108.3680 0001742  75.5270 284.6123 14.60430981111529,14.60430981,0.0001742,LEO
28649,IRS-P5 (CARTOSAT-1),2005,96.67,1560.0,+,97.57,Active,1,LEO,India,India,Government,Earth Observation,PSLV,1 28649U 05017A   25158.84386635  .00001361  00000+0  14784-3 0  9993,2 28649  97.5668 193.4238 0001162 133.9523 226.1791 14.89653817 88138,14.89653817,0.0001162,LEO
28893,SINAH 1,2005,98.38,-1.0,+,98.24,Active,0,LEO,Russia,Iran,Unknown,Unknown,Unknown,1 28893U 05043D   25158.84219116  .00000307  00000+0  68224-4 0  9990,2 28893  98.2370 287.2225 0014745  14.3410 345.8208 14.63717774 45997,14.63717774,0.0014745,LEO
29079,EROS B,2006,93.54,350.0,+,97.35,Active,1,LEO,Russia,Israel,Commercial/Military,Earth Observation,Start-1,1 29079U 06014A   25158.84441240  .00030631  00000+0  78079-3 0  9992,2 29079  97.3455 271.9768 0005142  77.8685 282.3137 15.39472428 61722,15.39472428,0.0005142,LEO
29228,RESURS-DK 1,2006,95.3,-1.0,P,69.93,Active,0,LEO,Kazakhstan,Russia/USSR,Unknown,Unknown,Unknown,1 29228U 06021A   25158.54761661  .00001905  00000+0  12023-3 0  9994,2 29228  69.9326 227.6523 0005839 214.7889 145.2895 15.10957955 45944,15.10957955,0.0005839,LEO
