[
  {
    "OBJECT_NAME": "SCD 1",
    "OBJECT_ID": "1993-009B",
    "EPOCH": "2025-06-07T21:40:21.785088",
    "MEAN_MOTION": 14.45858727,
    "ECCENTRICITY": 0.0042224,
    "INCLINATION": 24.9709,
    "RA_OF_ASC_NODE": 358.0828,
    "ARG_OF_PERICENTER": 137.1695,
    "MEAN_ANOMALY": 357.9385,
    "EPHEMERIS_TYPE": 0,
    "CLASSIFICATION_TYPE": "U",
    "NORAD_CAT_ID": 22490,
    "ELEMENT_SET_NO": 999,
    "REV_AT_EPOCH": 70728,
    "BSTAR": 6.6325e-05,
    "MEAN_MOTION_DOT": 4.27e-06,
    "MEAN_MOTION_DDOT": 0
  },
  {
    "OBJECT_NAME": "TECHSAT 1B (GO-32)",
    "OBJECT_ID": "1998-043D",
    "EPOCH": "2025-06-07T12:20:23.146656",
    "MEAN_MOTION": 14.24314866,
    "ECCENTRICITY": 0.0001062,
    "INCLINATION": 98.97,
    "RA_OF_ASC_NODE": 137.5901,
    "ARG_OF_PERICENTER": 161.6973,
    "MEAN_ANOMALY": 198.4244,
    "EPHEMERIS_TYPE": 0,
    "CLASSIFICATION_TYPE": "U",
    "NORAD_CAT_ID": 25397,
    "ELEMENT_SET_NO": 999,
    "REV_AT_EPOCH": 39799,
    "BSTAR": 5.2194e-05,
    "MEAN_MOTION_DOT": 7.4e-07,
    "MEAN_MOTION_DDOT": 0
  },
  {
    "OBJECT_NAME": "SCD 2",
    "OBJECT_ID": "1998-060A",
    "EPOCH": "2025-06-07T12:36:22.541760",
    "MEAN_MOTION": 14.45297738,
    "ECCENTRICITY": 0.0017005,
    "INCLINATION": 24.9939,
    "RA_OF_ASC_NODE": 222.2879,
    "ARG_OF_PERICENTER": 123.9586,
    "MEAN_ANOMALY": 259.5109,
    "EPHEMERIS_TYPE": 0,
    "CLASSIFICATION_TYPE": "U",
    "NORAD_CAT_ID": 25504,
    "ELEMENT_SET_NO": 999,
    "REV_AT_EPOCH": 40606,
    "BSTAR": 5.2465e-05,
    "MEAN_MOTION_DOT": 3.69e-06,
    "MEAN_MOTION_DDOT": 0
  },
  {
    "OBJECT_NAME": "DLR-TUBSAT",
    "OBJECT_ID": "1999-029B",
    "EPOCH": "2025-06-07T22:10:30.726336",
    "MEAN_MOTION": 14.52271421,
    "ECCENTRICITY": 0.0015165,
    "INCLINATION": 98.6348,
    "RA_OF_ASC_NODE": 137.8555,
    "ARG_OF_PERICENTER": 51.4067,
    "MEAN_ANOMALY": 308.8483,
    "EPHEMERIS_TYPE": 0,
    "CLASSIFICATION_TYPE": "U",
    "NORAD_CAT_ID": 25757,
    "ELEMENT_SET_NO": 999,
    "REV_AT_EPOCH": 37902,
    "BSTAR": 3.7274e-05,
    "MEAN_MOTION_DOT": 1.03e-06,
    "MEAN_MOTION_DDOT": 0
  },
  {
    "OBJECT_NAME": "TERRA",
    "OBJECT_ID": "1999-068A",
    "EPOCH": "2025-06-07T20:36:07.203744",
    "MEAN_MOTION": 14.60702765,
    "ECCENTRICITY": 0.0001914,
    "INCLINATION": 97.9983,
    "RA_OF_ASC_NODE": 217.1381,
    "ARG_OF_PERICENTER": 10.3225,
    "MEAN_ANOMALY": 100.6895,
    "EPHEMERIS_TYPE": 0,
    "CLASSIFICATION_TYPE": "U",
    "NORAD_CAT_ID": 25994,
    "ELEMENT_SET_NO": 999,
    "REV_AT_EPOCH": 35507,
    "BSTAR": 8.7106e-05,
    "MEAN_MOTION_DOT": 3.8e-06,
    "MEAN_MOTION_DDOT": 0
  },
  {
    "OBJECT_NAME": "MAROC-TUBSAT",
    "OBJECT_ID": "2001-056D",
    "EPOCH": "2025-06-07T16:56:35.964384",
    "MEAN_MOTION": 13.70242516,
    "ECCENTRICITY": 0.0020132,
    "INCLINATION": 99.7774,
    "RA_OF_ASC_NODE": 323.9992,
    "ARG_OF_PERICENTER": 24.4753,
    "MEAN_ANOMALY": 346.7176,
    "EPHEMERIS_TYPE": 0,
    "CLASSIFICATION_TYPE": "U",
    "NORAD_CAT_ID": 27004,
    "ELEMENT_SET_NO": 999,
    "REV_AT_EPOCH": 17489,
    "BSTAR": 3.1729e-05,
    "MEAN_MOTION_DOT": -1.8e-07,
    "MEAN_MOTION_DDOT": 0
  },
  {
    "OBJECT_NAME": "AQUA",
    "OBJECT_ID": "2002-022A",
    "EPOCH": "2025-06-07T21:17:37.613760",
    "MEAN_MOTION": 14.61290502,
    "ECCENTRICITY": 0.0002105,
    "INCLINATION": 98.3774,
    "RA_OF_ASC_NODE": 117.1211,
    "ARG_OF_PERICENTER": 76.9431,
    "MEAN_ANOMALY": 303.9516,
    "EPHEMERIS_TYPE": 0,
    "CLASSIFICATION_TYPE": "U",
    "NORAD_CAT_ID": 27424,
    "ELEMENT_SET_NO": 999,
    "REV_AT_EPOCH": 22863,
    "BSTAR": 0.00016243,
    "MEAN_MOTION_DOT": 7.53e-06,
    "MEAN_MOTION_DDOT": 0
  },
  {
    "OBJECT_NAME": "IRS-P6 (RESOURCESAT-1)",
    "OBJECT_ID": "2003-046A",
    "EPOCH": "2025-06-07T20:56:52.060128",
    "MEAN_MOTION": 14.35979422,
    "ECCENTRICITY": 0.0064777,
    "INCLINATION": 98.2409,
    "RA_OF_ASC_NODE": 207.6759,
    "ARG_OF_PERICENTER": 25.9206,
    "MEAN_ANOMALY": 77.678,
    "EPHEMERIS_TYPE": 0,
    "CLASSIFICATION_TYPE": "U",
    "NORAD_CAT_ID": 28051,
    "ELEMENT_SET_NO": 999,
    "REV_AT_EPOCH": 12683,
    "BSTAR": 5.1448e-05,
    "MEAN_MOTION_DOT": 1.12e-06,
    "MEAN_MOTION_DDOT": 0
  },
  {
    "OBJECT_NAME": "SHIYAN-1 (SY-1)",
    "OBJECT_ID": "2004-012A",
    "EPOCH": "2025-06-07T21:23:17.083680",
    "MEAN_MOTION": 15.23104304,
    "ECCENTRICITY": 0.0005892,
    "INCLINATION": 97.9172,
    "RA_OF_ASC_NODE": 209.9011,
    "ARG_OF_PERICENTER": 242.5774,
    "MEAN_ANOMALY": 117.4863,
    "EPHEMERIS_TYPE": 0,
    "CLASSIFICATION_TYPE": "U",
    "NORAD_CAT_ID": 28220,
    "ELEMENT_SET_NO": 999,
    "REV_AT_EPOCH": 15411,
    "BSTAR": 0.00034157,
    "MEAN_MOTION_DOT": 7.984e-05,
    "MEAN_MOTION_DDOT": 0
  },
  {
    "OBJECT_NAME": "AURA",
    "OBJECT_ID": "2004-026A",
    "EPOCH": "2025-06-07T14:38:58.904736",
    "MEAN_MOTION": 14.60430981,
    "ECCENTRICITY": 0.0001742,
    "INCLINATION": 98.2941,
    "RA_OF_ASC_NODE": 108.368,
    "ARG_OF_PERICENTER": 75.527,
    "MEAN_ANOMALY": 284.6123,
    "EPHEMERIS_TYPE": 0,
    "CLASSIFICATION_TYPE": "U",
    "NORAD_CAT_ID": 28376,
    "ELEMENT_SET_NO": 999,
    "REV_AT_EPOCH": 11152,
    "BSTAR": 0.00017463,
    "MEAN_MOTION_DOT": 7.98e-06,
    "MEAN_MOTION_DDOT": 0
  },
  {
    "OBJECT_NAME": "IRS-P5 (CARTOSAT-1)",
    "OBJECT_ID": "2005-017A",
    "EPOCH": "2025-06-07T20:15:10.052640",
    "MEAN_MOTION": 14.89653817,
    "ECCENTRICITY": 0.0001162,
    "INCLINATION": 97.5668,
    "RA_OF_ASC_NODE": 193.4238,
    "ARG_OF_PERICENTER": 133.9523,
    "MEAN_ANOMALY": 226.1791,
    "EPHEMERIS_TYPE": 0,
    "CLASSIFICATION_TYPE": "U",
    "NORAD_CAT_ID": 28649,
    "ELEMENT_SET_NO": 999,
    "REV_AT_EPOCH": 8813,
    "BSTAR": 0.00014784,
    "MEAN_MOTION_DOT": 1.361e-05,
    "MEAN_MOTION_DDOT": 0
  },
  {
    "OBJECT_NAME": "SINAH 1",
    "OBJECT_ID": "2005-043D",
    "EPOCH": "2025-06-07T20:12:45.316224",
    "MEAN_MOTION": 14.63717774,
    "ECCENTRICITY": 0.0014745,
    "INCLINATION": 98.237,
    "RA_OF_ASC_NODE": 287.2225,
    "ARG_OF_PERICENTER": 14.341,
    "MEAN_ANOMALY": 345.8208,
    "EPHEMERIS_TYPE": 0,
    "CLASSIFICATION_TYPE": "U",
    "NORAD_CAT_ID": 28893,
    "ELEMENT_SET_NO": 999,
    "REV_AT_EPOCH": 4599,
    "BSTAR": 6.8224e-05,
    "MEAN_MOTION_DOT": 3.07e-06,
    "MEAN_MOTION_DDOT": 0
  },
  {
    "OBJECT_NAME": "EROS B",
    "OBJECT_ID": "2006-014A",
    "EPOCH": "2025-06-07T20:15:57.231360",
    "MEAN_MOTION": 15.39472428,
    "ECCENTRICITY": 0.0005142,
    "INCLINATION": 97.3455,
    "RA_OF_ASC_NODE": 271.9768,
    "ARG_OF_PERICENTER": 77.8685,
    "MEAN_ANOMALY": 282.3137,
    "EPHEMERIS_TYPE": 0,
    "CLASSIFICATION_TYPE": "U",
    "NORAD_CAT_ID": 29079,
    "ELEMENT_SET_NO": 999,
    "REV_AT_EPOCH": 6172,
    "BSTAR": 0.00078079,
    "MEAN_MOTION_DOT": 0.00030631,
    "MEAN_MOTION_DDOT": 0
  },
  {
    "OBJECT_NAME": "RESURS-DK 1",
    "OBJECT_ID": "2006-021A",
    "EPOCH": "2025-06-07T13:08:34.075104",
    "MEAN_MOTION": 15.10957955,
    "ECCENTRICITY": 0.0005839,
    "INCLINATION": 69.9326,
    "RA_OF_ASC_NODE": 227.6523,
    "ARG_OF_PERICENTER": 214.7889,
    "MEAN_ANOMALY": 145.2895,
    "EPHEMERIS_TYPE": 0,
    "CLASSIFICATION_TYPE": "U",
    "NORAD_CAT_ID": 29228,
    "ELEMENT_SET_NO": 999,
    "REV_AT_EPOCH": 4594,
    "BSTAR": 0.00012023,
    "MEAN_MOTION_DOT": 1.905e-05,
    "MEAN_MOTION_DDOT": 0
  }
]